<?xml version="1.0" encoding="UTF-8"?>
<osm version="0.6" generator="Overpass API 0.7.62.4 2390de5a">
<note>The data included in this document is from www.openstreetmap.org. The data is made available under ODbL.</note>
<meta osm_base="2026-07-14T08:38:20Z"/>

  <node id="13641142323" lat="-26.8257679" lon="116.7521609" version="1" timestamp="2026-03-12T13:39:52Z" changeset="179758942" uid="611825" user="Jonas Hermsmeier"/>
  <node id="13641142374" lat="-26.8743711" lon="116.7317714" version="1" timestamp="2026-03-12T13:39:52Z" changeset="179758942" uid="611825" user="Jonas Hermsmeier"/>
  <node id="13641142375" lat="-26.8720526" lon="116.7309354" version="1" timestamp="2026-03-12T13:39:52Z" changeset="179758942" uid="611825" user="Jonas Hermsmeier"/>
  <node id="13641142376" lat="-26.8695141" lon="116.7309647" version="1" timestamp="2026-03-12T13:39:52Z" changeset="179758942" uid="611825" user="Jonas Hermsmeier"/>
  <node id="13641142377" lat="-26.8692646" lon="116.7308834" version="1" timestamp="2026-03-12T13:39:52Z" changeset="179758942" uid="611825" user="Jonas Hermsmeier"/>
  <node id="13641142378" lat="-26.8689425" lon="116.7306329" version="1" timestamp="2026-03-12T13:39:52Z" changeset="179758942" uid="611825" user="Jonas Hermsmeier"/>
  <node id="13641142379" lat="-26.8658236" lon="116.7286392" version="1" timestamp="2026-03-12T13:39:52Z" changeset="179758942" uid="611825" user="Jonas Hermsmeier"/>
  <node id="13641142380" lat="-26.8625335" lon="116.7271464" version="1" timestamp="2026-03-12T13:39:52Z" changeset="179758942" uid="611825" user="Jonas Hermsmeier"/>
  <node id="13641142381" lat="-26.8591968" lon="116.7257056" version="1" timestamp="2026-03-12T13:39:52Z" changeset="179758942" uid="611825" user="Jonas Hermsmeier"/>
  <node id="13641142382" lat="-26.8589211" lon="116.7256275" version="1" timestamp="2026-03-12T13:39:52Z" changeset="179758942" uid="611825" user="Jonas Hermsmeier"/>
  <node id="13641142383" lat="-26.8563528" lon="116.7252310" version="1" timestamp="2026-03-12T13:39:52Z" changeset="179758942" uid="611825" user="Jonas Hermsmeier"/>
  <node id="13641142384" lat="-26.8546796" lon="116.7252901" version="1" timestamp="2026-03-12T13:39:52Z" changeset="179758942" uid="611825" user="Jonas Hermsmeier"/>
  <node id="13641142385" lat="-26.8381384" lon="116.7314313" version="1" timestamp="2026-03-12T13:39:52Z" changeset="179758942" uid="611825" user="Jonas Hermsmeier"/>
  <node id="13641142386" lat="-26.8377248" lon="116.7315172" version="1" timestamp="2026-03-12T13:39:52Z" changeset="179758942" uid="611825" user="Jonas Hermsmeier"/>
  <node id="13641142387" lat="-26.8371160" lon="116.7318176" version="1" timestamp="2026-03-12T13:39:52Z" changeset="179758942" uid="611825" user="Jonas Hermsmeier"/>
  <node id="13641142388" lat="-26.8351707" lon="116.7324828" version="1" timestamp="2026-03-12T13:39:52Z" changeset="179758942" uid="611825" user="Jonas Hermsmeier"/>
  <node id="13641142389" lat="-26.8348298" lon="116.7325386" version="1" timestamp="2026-03-12T13:39:52Z" changeset="179758942" uid="611825" user="Jonas Hermsmeier"/>
  <node id="13641142390" lat="-26.8346881" lon="116.7326115" version="1" timestamp="2026-03-12T13:39:52Z" changeset="179758942" uid="611825" user="Jonas Hermsmeier"/>
  <node id="13641142391" lat="-26.8345541" lon="116.7329076" version="1" timestamp="2026-03-12T13:39:52Z" changeset="179758942" uid="611825" user="Jonas Hermsmeier"/>
  <node id="13641142392" lat="-26.8334819" lon="116.7337058" version="1" timestamp="2026-03-12T13:39:52Z" changeset="179758942" uid="611825" user="Jonas Hermsmeier"/>
  <node id="13641142393" lat="-26.8329955" lon="116.7340921" version="1" timestamp="2026-03-12T13:39:52Z" changeset="179758942" uid="611825" user="Jonas Hermsmeier"/>
  <node id="13641142394" lat="-26.8301004" lon="116.7355812" version="1" timestamp="2026-03-12T13:39:52Z" changeset="179758942" uid="611825" user="Jonas Hermsmeier"/>
  <node id="13641142395" lat="-26.8281627" lon="116.7367958" version="1" timestamp="2026-03-12T13:39:52Z" changeset="179758942" uid="611825" user="Jonas Hermsmeier"/>
  <node id="13641142396" lat="-26.8276533" lon="116.7370447" version="1" timestamp="2026-03-12T13:39:52Z" changeset="179758942" uid="611825" user="Jonas Hermsmeier"/>
  <node id="13641142397" lat="-26.8225675" lon="116.7400788" version="1" timestamp="2026-03-12T13:39:52Z" changeset="179758942" uid="611825" user="Jonas Hermsmeier"/>
  <node id="13641142398" lat="-26.8194347" lon="116.7419456" version="1" timestamp="2026-03-12T13:39:52Z" changeset="179758942" uid="611825" user="Jonas Hermsmeier"/>
  <node id="13641142399" lat="-26.8193198" lon="116.7420572" version="1" timestamp="2026-03-12T13:39:52Z" changeset="179758942" uid="611825" user="Jonas Hermsmeier"/>
  <node id="13641142400" lat="-26.8191244" lon="116.7423447" version="1" timestamp="2026-03-12T13:39:52Z" changeset="179758942" uid="611825" user="Jonas Hermsmeier"/>
  <node id="13641142401" lat="-26.8162634" lon="116.7489322" version="1" timestamp="2026-03-12T13:39:52Z" changeset="179758942" uid="611825" user="Jonas Hermsmeier"/>
  <node id="13641142402" lat="-26.8159264" lon="116.7495202" version="1" timestamp="2026-03-12T13:39:52Z" changeset="179758942" uid="611825" user="Jonas Hermsmeier"/>
  <node id="13641142403" lat="-26.8151872" lon="116.7511810" version="1" timestamp="2026-03-12T13:39:52Z" changeset="179758942" uid="611825" user="Jonas Hermsmeier"/>
  <node id="13641142404" lat="-26.8148310" lon="116.7517990" version="1" timestamp="2026-03-12T13:39:52Z" changeset="179758942" uid="611825" user="Jonas Hermsmeier"/>
  <node id="13641142405" lat="-26.8143523" lon="116.7524298" version="1" timestamp="2026-03-12T13:39:52Z" changeset="179758942" uid="611825" user="Jonas Hermsmeier"/>
  <node id="13641142406" lat="-26.8139999" lon="116.7527431" version="1" timestamp="2026-03-12T13:39:52Z" changeset="179758942" uid="611825" user="Jonas Hermsmeier"/>
  <node id="13641142407" lat="-26.8122763" lon="116.7539404" version="1" timestamp="2026-03-12T13:39:52Z" changeset="179758942" uid="611825" user="Jonas Hermsmeier"/>
  <node id="13641142408" lat="-26.8121499" lon="116.7541421" version="1" timestamp="2026-03-12T13:39:52Z" changeset="179758942" uid="611825" user="Jonas Hermsmeier"/>
  <node id="13641142409" lat="-26.8120389" lon="116.7544683" version="1" timestamp="2026-03-12T13:39:52Z" changeset="179758942" uid="611825" user="Jonas Hermsmeier"/>
  <node id="13641142410" lat="-26.8104915" lon="116.7603477" version="1" timestamp="2026-03-12T13:39:52Z" changeset="179758942" uid="611825" user="Jonas Hermsmeier"/>
  <node id="13641142411" lat="-26.8103966" lon="116.7607063" version="1" timestamp="2026-03-12T13:39:52Z" changeset="179758942" uid="611825" user="Jonas Hermsmeier"/>
  <node id="13641142412" lat="-26.8104021" lon="116.7610102" version="1" timestamp="2026-03-12T13:39:52Z" changeset="179758942" uid="611825" user="Jonas Hermsmeier"/>
  <node id="13641142413" lat="-26.8104756" lon="116.7612606" version="1" timestamp="2026-03-12T13:39:52Z" changeset="179758942" uid="611825" user="Jonas Hermsmeier"/>
  <node id="13641142414" lat="-26.8148433" lon="116.7683616" version="1" timestamp="2026-03-12T13:39:52Z" changeset="179758942" uid="611825" user="Jonas Hermsmeier"/>
  <node id="13641142415" lat="-26.8149887" lon="116.7685686" version="1" timestamp="2026-03-12T13:39:52Z" changeset="179758942" uid="611825" user="Jonas Hermsmeier"/>
  <node id="13641142416" lat="-26.8152185" lon="116.7688389" version="1" timestamp="2026-03-12T13:39:52Z" changeset="179758942" uid="611825" user="Jonas Hermsmeier"/>
  <node id="13641142417" lat="-26.8153908" lon="116.7689591" version="1" timestamp="2026-03-12T13:39:52Z" changeset="179758942" uid="611825" user="Jonas Hermsmeier"/>
  <node id="13641142418" lat="-26.8208677" lon="116.7708946" version="1" timestamp="2026-03-12T13:39:52Z" changeset="179758942" uid="611825" user="Jonas Hermsmeier"/>
  <node id="13641142419" lat="-26.8211013" lon="116.7709590" version="1" timestamp="2026-03-12T13:39:52Z" changeset="179758942" uid="611825" user="Jonas Hermsmeier"/>
  <node id="13641142420" lat="-26.8214000" lon="116.7709461" version="1" timestamp="2026-03-12T13:39:52Z" changeset="179758942" uid="611825" user="Jonas Hermsmeier"/>
  <node id="13641142421" lat="-26.8216106" lon="116.7709160" version="1" timestamp="2026-03-12T13:39:52Z" changeset="179758942" uid="611825" user="Jonas Hermsmeier"/>
  <node id="13641142422" lat="-26.8251302" lon="116.7701822" version="1" timestamp="2026-03-12T13:39:52Z" changeset="179758942" uid="611825" user="Jonas Hermsmeier"/>
  <node id="13641142423" lat="-26.8254672" lon="116.7701007" version="1" timestamp="2026-03-12T13:39:52Z" changeset="179758942" uid="611825" user="Jonas Hermsmeier"/>
  <node id="13641142424" lat="-26.8258655" lon="116.7700964" version="1" timestamp="2026-03-12T13:39:52Z" changeset="179758942" uid="611825" user="Jonas Hermsmeier"/>
  <node id="13641142425" lat="-26.8262446" lon="116.7700148" version="1" timestamp="2026-03-12T13:39:52Z" changeset="179758942" uid="611825" user="Jonas Hermsmeier"/>
  <node id="13641142426" lat="-26.8268880" lon="116.7699333" version="1" timestamp="2026-03-12T13:39:52Z" changeset="179758942" uid="611825" user="Jonas Hermsmeier"/>
  <node id="13641142427" lat="-26.8271370" lon="116.7698646" version="1" timestamp="2026-03-12T13:39:52Z" changeset="179758942" uid="611825" user="Jonas Hermsmeier"/>
  <node id="13641142428" lat="-26.8273629" lon="116.7696887" version="1" timestamp="2026-03-12T13:39:52Z" changeset="179758942" uid="611825" user="Jonas Hermsmeier"/>
  <node id="13641142429" lat="-26.8281671" lon="116.7689076" version="1" timestamp="2026-03-12T13:39:52Z" changeset="179758942" uid="611825" user="Jonas Hermsmeier"/>
  <node id="13641142430" lat="-26.8286152" lon="116.7683025" version="1" timestamp="2026-03-12T13:39:52Z" changeset="179758942" uid="611825" user="Jonas Hermsmeier"/>
  <node id="13641142431" lat="-26.8293237" lon="116.7663499" version="1" timestamp="2026-03-12T13:39:52Z" changeset="179758942" uid="611825" user="Jonas Hermsmeier"/>
  <node id="13641142432" lat="-26.8294156" lon="116.7659722" version="1" timestamp="2026-03-12T13:39:52Z" changeset="179758942" uid="611825" user="Jonas Hermsmeier"/>
  <node id="13641142433" lat="-26.8295381" lon="116.7631355" version="1" timestamp="2026-03-12T13:39:52Z" changeset="179758942" uid="611825" user="Jonas Hermsmeier"/>
  <node id="13641142434" lat="-26.8296798" lon="116.7625304" version="1" timestamp="2026-03-12T13:39:52Z" changeset="179758942" uid="611825" user="Jonas Hermsmeier"/>
  <node id="13641142435" lat="-26.8300589" lon="116.7620540" version="1" timestamp="2026-03-12T13:39:52Z" changeset="179758942" uid="611825" user="Jonas Hermsmeier"/>
  <node id="13641142439" lat="-26.8354650" lon="116.7594797" version="1" timestamp="2026-03-12T13:39:52Z" changeset="179758942" uid="611825" user="Jonas Hermsmeier"/>
  <node id="13641142440" lat="-26.8306586" lon="116.7607653" version="1" timestamp="2026-03-12T13:39:52Z" changeset="179758942" uid="611825" user="Jonas Hermsmeier"/>
  <node id="13641142441" lat="-26.8288757" lon="116.7623246" version="1" timestamp="2026-03-12T13:39:52Z" changeset="179758942" uid="611825" user="Jonas Hermsmeier"/>
  <node id="13641142442" lat="-26.8297349" lon="116.7615553" version="1" timestamp="2026-03-12T13:39:52Z" changeset="179758942" uid="611825" user="Jonas Hermsmeier"/>
  <node id="13641142443" lat="-26.8316767" lon="116.7642347" version="1" timestamp="2026-03-12T13:39:52Z" changeset="179758942" uid="611825" user="Jonas Hermsmeier"/>
  <node id="13641142444" lat="-26.8317511" lon="116.7647880" version="1" timestamp="2026-03-12T13:39:52Z" changeset="179758942" uid="611825" user="Jonas Hermsmeier"/>
  <node id="13641142445" lat="-26.8318634" lon="116.7655408" version="1" timestamp="2026-03-12T13:39:52Z" changeset="179758942" uid="611825" user="Jonas Hermsmeier"/>
  <node id="13641142446" lat="-26.8327357" lon="116.7713599" version="1" timestamp="2026-03-12T13:39:52Z" changeset="179758942" uid="611825" user="Jonas Hermsmeier"/>
  <node id="13641142447" lat="-26.8294153" lon="116.7796226" version="1" timestamp="2026-03-12T13:39:52Z" changeset="179758942" uid="611825" user="Jonas Hermsmeier"/>
  <node id="13641142448" lat="-26.8292641" lon="116.7798674" version="1" timestamp="2026-03-12T13:39:52Z" changeset="179758942" uid="611825" user="Jonas Hermsmeier"/>
  <node id="13641142449" lat="-26.8291170" lon="116.7799568" version="1" timestamp="2026-03-12T13:39:52Z" changeset="179758942" uid="611825" user="Jonas Hermsmeier"/>
  <node id="13641142450" lat="-26.8289280" lon="116.7799945" version="1" timestamp="2026-03-12T13:39:52Z" changeset="179758942" uid="611825" user="Jonas Hermsmeier"/>
  <node id="13641142451" lat="-26.8204681" lon="116.7803052" version="1" timestamp="2026-03-12T13:39:52Z" changeset="179758942" uid="611825" user="Jonas Hermsmeier"/>
  <node id="13641142452" lat="-26.8167547" lon="116.7801357" version="1" timestamp="2026-03-12T13:39:52Z" changeset="179758942" uid="611825" user="Jonas Hermsmeier"/>
  <node id="13641142453" lat="-26.8166148" lon="116.7801476" version="1" timestamp="2026-03-12T13:39:52Z" changeset="179758942" uid="611825" user="Jonas Hermsmeier"/>
  <node id="13641142454" lat="-26.8164430" lon="116.7800715" version="1" timestamp="2026-03-12T13:39:52Z" changeset="179758942" uid="611825" user="Jonas Hermsmeier"/>
  <node id="13641142455" lat="-26.8162919" lon="116.7800250" version="1" timestamp="2026-03-12T13:39:52Z" changeset="179758942" uid="611825" user="Jonas Hermsmeier"/>
  <node id="13641142456" lat="-26.8161132" lon="116.7800653" version="1" timestamp="2026-03-12T13:39:52Z" changeset="179758942" uid="611825" user="Jonas Hermsmeier"/>
  <node id="13641142457" lat="-26.8159704" lon="116.7800917" version="1" timestamp="2026-03-12T13:39:52Z" changeset="179758942" uid="611825" user="Jonas Hermsmeier"/>
  <node id="13641142458" lat="-26.8149602" lon="116.7800110" version="1" timestamp="2026-03-12T13:39:52Z" changeset="179758942" uid="611825" user="Jonas Hermsmeier"/>
  <node id="13641142459" lat="-26.8148466" lon="116.7800001" version="1" timestamp="2026-03-12T13:39:52Z" changeset="179758942" uid="611825" user="Jonas Hermsmeier"/>
  <node id="13641142460" lat="-26.8147135" lon="116.7799147" version="1" timestamp="2026-03-12T13:39:52Z" changeset="179758942" uid="611825" user="Jonas Hermsmeier"/>
  <node id="13641142461" lat="-26.8143865" lon="116.7796104" version="1" timestamp="2026-03-12T13:39:52Z" changeset="179758942" uid="611825" user="Jonas Hermsmeier"/>
  <node id="13641142462" lat="-26.8118689" lon="116.7795579" version="1" timestamp="2026-03-12T13:39:52Z" changeset="179758942" uid="611825" user="Jonas Hermsmeier"/>
  <node id="13641142463" lat="-26.8114886" lon="116.7796457" version="1" timestamp="2026-03-12T13:39:52Z" changeset="179758942" uid="611825" user="Jonas Hermsmeier"/>
  <node id="13641142464" lat="-26.8110997" lon="116.7797725" version="1" timestamp="2026-03-12T13:39:52Z" changeset="179758942" uid="611825" user="Jonas Hermsmeier"/>
  <node id="13641142465" lat="-26.8108790" lon="116.7798148" version="1" timestamp="2026-03-12T13:39:52Z" changeset="179758942" uid="611825" user="Jonas Hermsmeier"/>
  <node id="13641142466" lat="-26.8072564" lon="116.7796977" version="1" timestamp="2026-03-12T13:39:52Z" changeset="179758942" uid="611825" user="Jonas Hermsmeier"/>
  <node id="13641142467" lat="-26.8070183" lon="116.7796717" version="1" timestamp="2026-03-12T13:39:52Z" changeset="179758942" uid="611825" user="Jonas Hermsmeier"/>
  <node id="13641142468" lat="-26.8067919" lon="116.7795644" version="1" timestamp="2026-03-12T13:39:52Z" changeset="179758942" uid="611825" user="Jonas Hermsmeier"/>
  <node id="13641142469" lat="-26.8065916" lon="116.7794180" version="1" timestamp="2026-03-12T13:39:52Z" changeset="179758942" uid="611825" user="Jonas Hermsmeier"/>
  <node id="13641142470" lat="-26.8023011" lon="116.7757981" version="1" timestamp="2026-03-12T13:39:52Z" changeset="179758942" uid="611825" user="Jonas Hermsmeier"/>
  <node id="13641142471" lat="-26.8007132" lon="116.7751444" version="1" timestamp="2026-03-12T13:39:52Z" changeset="179758942" uid="611825" user="Jonas Hermsmeier"/>
  <node id="13641142472" lat="-26.8003155" lon="116.7748159" version="1" timestamp="2026-03-12T13:39:52Z" changeset="179758942" uid="611825" user="Jonas Hermsmeier"/>
  <node id="13641142473" lat="-26.7970118" lon="116.7714855" version="1" timestamp="2026-03-12T13:39:52Z" changeset="179758942" uid="611825" user="Jonas Hermsmeier"/>
  <node id="13641142474" lat="-26.7945528" lon="116.7694462" version="1" timestamp="2026-03-12T13:39:52Z" changeset="179758942" uid="611825" user="Jonas Hermsmeier"/>
  <node id="13641142475" lat="-26.7932580" lon="116.7689649" version="1" timestamp="2026-03-12T13:39:52Z" changeset="179758942" uid="611825" user="Jonas Hermsmeier"/>
  <node id="13641142476" lat="-26.7911880" lon="116.7690267" version="1" timestamp="2026-03-12T13:39:52Z" changeset="179758942" uid="611825" user="Jonas Hermsmeier"/>
  <node id="13641142477" lat="-26.7910574" lon="116.7690494" version="1" timestamp="2026-03-12T13:39:52Z" changeset="179758942" uid="611825" user="Jonas Hermsmeier"/>
  <node id="13641142478" lat="-26.7907286" lon="116.7693613" version="1" timestamp="2026-03-12T13:39:52Z" changeset="179758942" uid="611825" user="Jonas Hermsmeier"/>
  <node id="13641142479" lat="-26.7905697" lon="116.7693769" version="1" timestamp="2026-03-12T13:39:52Z" changeset="179758942" uid="611825" user="Jonas Hermsmeier"/>
  <node id="13641142480" lat="-26.7904949" lon="116.7692876" version="1" timestamp="2026-03-12T13:39:52Z" changeset="179758942" uid="611825" user="Jonas Hermsmeier"/>
  <node id="13641142481" lat="-26.7810001" lon="116.7564888" version="1" timestamp="2026-03-12T13:39:52Z" changeset="179758942" uid="611825" user="Jonas Hermsmeier"/>
  <node id="13641142482" lat="-26.7761366" lon="116.7533991" version="1" timestamp="2026-03-12T13:39:52Z" changeset="179758942" uid="611825" user="Jonas Hermsmeier"/>
  <node id="13641142483" lat="-26.7758629" lon="116.7533310" version="1" timestamp="2026-03-12T13:39:52Z" changeset="179758942" uid="611825" user="Jonas Hermsmeier"/>
  <node id="13641142484" lat="-26.7756075" lon="116.7533514" version="1" timestamp="2026-03-12T13:39:52Z" changeset="179758942" uid="611825" user="Jonas Hermsmeier"/>
  <node id="13641142485" lat="-26.7671289" lon="116.7546866" version="1" timestamp="2026-03-12T13:39:52Z" changeset="179758942" uid="611825" user="Jonas Hermsmeier"/>
  <node id="13641142486" lat="-26.7584734" lon="116.7560764" version="1" timestamp="2026-03-12T13:39:52Z" changeset="179758942" uid="611825" user="Jonas Hermsmeier"/>
  <node id="13641142487" lat="-26.7513988" lon="116.7571936" version="1" timestamp="2026-03-12T13:39:52Z" changeset="179758942" uid="611825" user="Jonas Hermsmeier"/>
  <node id="13641142488" lat="-26.7496650" lon="116.7574661" version="1" timestamp="2026-03-12T13:39:52Z" changeset="179758942" uid="611825" user="Jonas Hermsmeier"/>
  <node id="13641142489" lat="-26.7906562" lon="116.7693863" version="1" timestamp="2026-03-12T13:39:52Z" changeset="179758942" uid="611825" user="Jonas Hermsmeier"/>
  <node id="13641142493" lat="-26.8327026" lon="116.7708853" version="1" timestamp="2026-03-12T13:39:52Z" changeset="179758942" uid="611825" user="Jonas Hermsmeier"/>
  <node id="13641142494" lat="-26.8338454" lon="116.7712635" version="1" timestamp="2026-03-12T13:39:52Z" changeset="179758942" uid="611825" user="Jonas Hermsmeier"/>
  <node id="13641142495" lat="-26.8317109" lon="116.7644891" version="1" timestamp="2026-03-12T13:39:52Z" changeset="179758942" uid="611825" user="Jonas Hermsmeier"/>
  <node id="13641142496" lat="-26.8321512" lon="116.7643506" version="1" timestamp="2026-03-12T13:39:52Z" changeset="179758942" uid="611825" user="Jonas Hermsmeier"/>
  <node id="13641142497" lat="-26.8326090" lon="116.7639903" version="1" timestamp="2026-03-12T13:39:52Z" changeset="179758942" uid="611825" user="Jonas Hermsmeier"/>
  <node id="13641142498" lat="-26.8293338" lon="116.7610093" version="1" timestamp="2026-03-12T13:39:52Z" changeset="179758942" uid="611825" user="Jonas Hermsmeier"/>
  <node id="13641142499" lat="-26.8292863" lon="116.7608118" version="1" timestamp="2026-03-12T13:39:52Z" changeset="179758942" uid="611825" user="Jonas Hermsmeier"/>
  <node id="13641142520" lat="-26.8367500" lon="116.7566044" version="1" timestamp="2026-03-12T13:39:52Z" changeset="179758942" uid="611825" user="Jonas Hermsmeier"/>
  <node id="13641142523" lat="-26.8366225" lon="116.7574678" version="1" timestamp="2026-03-12T13:39:52Z" changeset="179758942" uid="611825" user="Jonas Hermsmeier"/>
  <node id="13641142524" lat="-26.8726304" lon="116.7311431" version="1" timestamp="2026-03-12T13:39:52Z" changeset="179758942" uid="611825" user="Jonas Hermsmeier"/>
  <node id="13641142525" lat="-26.8726050" lon="116.7323910" version="1" timestamp="2026-03-12T13:39:52Z" changeset="179758942" uid="611825" user="Jonas Hermsmeier"/>
  <node id="13641142526" lat="-26.8725640" lon="116.7324883" version="1" timestamp="2026-03-12T13:39:52Z" changeset="179758942" uid="611825" user="Jonas Hermsmeier"/>
  <node id="13641142527" lat="-26.8724434" lon="116.7325694" version="1" timestamp="2026-03-12T13:39:52Z" changeset="179758942" uid="611825" user="Jonas Hermsmeier"/>
  <node id="13641142528" lat="-26.8719322" lon="116.7325397" version="1" timestamp="2026-03-12T13:39:52Z" changeset="179758942" uid="611825" user="Jonas Hermsmeier"/>
  <node id="13641142529" lat="-26.8715367" lon="116.7324018" version="1" timestamp="2026-03-12T13:39:52Z" changeset="179758942" uid="611825" user="Jonas Hermsmeier"/>
  <node id="13641142530" lat="-26.8688387" lon="116.7323639" version="1" timestamp="2026-03-12T13:39:52Z" changeset="179758942" uid="611825" user="Jonas Hermsmeier"/>
  <node id="13641142531" lat="-26.8648595" lon="116.7323897" version="1" timestamp="2026-03-12T13:39:52Z" changeset="179758942" uid="611825" user="Jonas Hermsmeier"/>
  <node id="13641142532" lat="-26.8642608" lon="116.7324672" version="1" timestamp="2026-03-12T13:39:52Z" changeset="179758942" uid="611825" user="Jonas Hermsmeier"/>
  <node id="13641142533" lat="-26.8635700" lon="116.7325963" version="1" timestamp="2026-03-12T13:39:52Z" changeset="179758942" uid="611825" user="Jonas Hermsmeier"/>
  <node id="13641142534" lat="-26.8629804" lon="116.7327563" version="1" timestamp="2026-03-12T13:39:52Z" changeset="179758942" uid="611825" user="Jonas Hermsmeier"/>
  <node id="13641142535" lat="-26.8623264" lon="116.7329835" version="1" timestamp="2026-03-12T13:39:52Z" changeset="179758942" uid="611825" user="Jonas Hermsmeier"/>
  <node id="13641142536" lat="-26.8617369" lon="116.7332778" version="1" timestamp="2026-03-12T13:39:52Z" changeset="179758942" uid="611825" user="Jonas Hermsmeier"/>
  <node id="13641142537" lat="-26.8612671" lon="116.7335204" version="1" timestamp="2026-03-12T13:39:52Z" changeset="179758942" uid="611825" user="Jonas Hermsmeier"/>
  <node id="13641142538" lat="-26.8605854" lon="116.7339696" version="1" timestamp="2026-03-12T13:39:52Z" changeset="179758942" uid="611825" user="Jonas Hermsmeier"/>
  <node id="13641142539" lat="-26.8598439" lon="116.7345426" version="1" timestamp="2026-03-12T13:39:52Z" changeset="179758942" uid="611825" user="Jonas Hermsmeier"/>
  <node id="13641142540" lat="-26.8595445" lon="116.7348318" version="1" timestamp="2026-03-12T13:39:52Z" changeset="179758942" uid="611825" user="Jonas Hermsmeier"/>
  <node id="13641142541" lat="-26.8541095" lon="116.7405780" version="1" timestamp="2026-03-12T13:39:52Z" changeset="179758942" uid="611825" user="Jonas Hermsmeier"/>
  <node id="13641142542" lat="-26.8492592" lon="116.7456376" version="1" timestamp="2026-03-12T13:39:52Z" changeset="179758942" uid="611825" user="Jonas Hermsmeier"/>
  <node id="13641142543" lat="-26.8454498" lon="116.7496284" version="1" timestamp="2026-03-12T13:39:52Z" changeset="179758942" uid="611825" user="Jonas Hermsmeier"/>
  <node id="13641142544" lat="-26.8411197" lon="116.7537174" version="1" timestamp="2026-03-12T13:39:52Z" changeset="179758942" uid="611825" user="Jonas Hermsmeier"/>
  <node id="13641142545" lat="-26.8390559" lon="116.7556999" version="1" timestamp="2026-03-12T13:39:52Z" changeset="179758942" uid="611825" user="Jonas Hermsmeier"/>
  <node id="13641142546" lat="-26.8384800" lon="116.7562523" version="1" timestamp="2026-03-12T13:39:52Z" changeset="179758942" uid="611825" user="Jonas Hermsmeier"/>
  <node id="13641142547" lat="-26.8370833" lon="116.7571307" version="1" timestamp="2026-03-12T13:39:52Z" changeset="179758942" uid="611825" user="Jonas Hermsmeier"/>
  <node id="13641142548" lat="-26.8356285" lon="116.7579767" version="1" timestamp="2026-03-12T13:39:52Z" changeset="179758942" uid="611825" user="Jonas Hermsmeier"/>
  <node id="13641142549" lat="-26.8340621" lon="116.7584878" version="1" timestamp="2026-03-12T13:39:52Z" changeset="179758942" uid="611825" user="Jonas Hermsmeier"/>
  <node id="13641142550" lat="-26.8318278" lon="116.7591383" version="1" timestamp="2026-03-12T13:39:52Z" changeset="179758942" uid="611825" user="Jonas Hermsmeier"/>
  <node id="13641142551" lat="-26.8314224" lon="116.7593139" version="1" timestamp="2026-03-12T13:39:52Z" changeset="179758942" uid="611825" user="Jonas Hermsmeier"/>
  <node id="13641142552" lat="-26.8299020" lon="116.7596959" version="1" timestamp="2026-03-12T13:39:52Z" changeset="179758942" uid="611825" user="Jonas Hermsmeier"/>
  <node id="13641142553" lat="-26.8287042" lon="116.7603981" version="1" timestamp="2026-03-12T13:39:52Z" changeset="179758942" uid="611825" user="Jonas Hermsmeier"/>
  <node id="13641142554" lat="-26.8275893" lon="116.7610434" version="1" timestamp="2026-03-12T13:39:52Z" changeset="179758942" uid="611825" user="Jonas Hermsmeier"/>
  <node id="13641142555" lat="-26.8274867" lon="116.7611474" version="1" timestamp="2026-03-12T13:39:52Z" changeset="179758942" uid="611825" user="Jonas Hermsmeier"/>
  <node id="13641142556" lat="-26.8274343" lon="116.7612941" version="1" timestamp="2026-03-12T13:39:52Z" changeset="179758942" uid="611825" user="Jonas Hermsmeier"/>
  <node id="13641142557" lat="-26.8274335" lon="116.7614617" version="1" timestamp="2026-03-12T13:39:52Z" changeset="179758942" uid="611825" user="Jonas Hermsmeier"/>
  <node id="13641142558" lat="-26.8274879" lon="116.7616475" version="1" timestamp="2026-03-12T13:39:52Z" changeset="179758942" uid="611825" user="Jonas Hermsmeier"/>
  <node id="13641142559" lat="-26.8278947" lon="116.7624614" version="1" timestamp="2026-03-12T13:39:52Z" changeset="179758942" uid="611825" user="Jonas Hermsmeier"/>
  <node id="13641142560" lat="-26.8284969" lon="116.7639862" version="1" timestamp="2026-03-12T13:39:52Z" changeset="179758942" uid="611825" user="Jonas Hermsmeier"/>
  <node id="13641142561" lat="-26.8291833" lon="116.7654628" version="1" timestamp="2026-03-12T13:39:52Z" changeset="179758942" uid="611825" user="Jonas Hermsmeier"/>
  <node id="13641142562" lat="-26.8293282" lon="116.7659953" version="1" timestamp="2026-03-12T13:39:52Z" changeset="179758942" uid="611825" user="Jonas Hermsmeier"/>
  <node id="13641142563" lat="-26.8292775" lon="116.7657076" version="1" timestamp="2026-03-12T13:39:52Z" changeset="179758942" uid="611825" user="Jonas Hermsmeier"/>
  <node id="13641142566" lat="-26.8212057" lon="116.7709681" version="1" timestamp="2026-03-12T13:39:52Z" changeset="179758942" uid="611825" user="Jonas Hermsmeier"/>
  <node id="13641142567" lat="-26.8212033" lon="116.7718990" version="1" timestamp="2026-03-12T13:39:52Z" changeset="179758942" uid="611825" user="Jonas Hermsmeier"/>
  <node id="13641142568" lat="-26.8155323" lon="116.7690285" version="1" timestamp="2026-03-12T13:39:52Z" changeset="179758942" uid="611825" user="Jonas Hermsmeier"/>
  <node id="13641142569" lat="-26.8152705" lon="116.7693342" version="1" timestamp="2026-03-12T13:39:52Z" changeset="179758942" uid="611825" user="Jonas Hermsmeier"/>
  <node id="13641142570" lat="-26.8145566" lon="116.7698140" version="1" timestamp="2026-03-12T13:39:52Z" changeset="179758942" uid="611825" user="Jonas Hermsmeier"/>
  <node id="13641142571" lat="-26.8104339" lon="116.7605335" version="1" timestamp="2026-03-12T13:39:52Z" changeset="179758942" uid="611825" user="Jonas Hermsmeier"/>
  <node id="13641142575" lat="-26.8726061" lon="116.7322565" version="1" timestamp="2026-03-12T13:39:52Z" changeset="179758942" uid="611825" user="Jonas Hermsmeier"/>
  <node id="13641142581" lat="-26.8726110" lon="116.7316377" version="1" timestamp="2026-03-12T13:39:52Z" changeset="179758942" uid="611825" user="Jonas Hermsmeier"/>
  <node id="13641142582" lat="-26.8727858" lon="116.7311998" version="1" timestamp="2026-03-12T13:39:52Z" changeset="179758942" uid="611825" user="Jonas Hermsmeier"/>
  <node id="13641142624" lat="-26.8212748" lon="116.7621266" version="1" timestamp="2026-03-12T13:39:52Z" changeset="179758942" uid="611825" user="Jonas Hermsmeier"/>
  <node id="13641142625" lat="-26.8206962" lon="116.7611653" version="1" timestamp="2026-03-12T13:39:52Z" changeset="179758942" uid="611825" user="Jonas Hermsmeier"/>
  <node id="13641142626" lat="-26.8205545" lon="116.7608907" version="1" timestamp="2026-03-12T13:39:52Z" changeset="179758942" uid="611825" user="Jonas Hermsmeier"/>
  <node id="13641142627" lat="-26.8204817" lon="116.7606847" version="1" timestamp="2026-03-12T13:39:52Z" changeset="179758942" uid="611825" user="Jonas Hermsmeier"/>
  <node id="13641142628" lat="-26.8204855" lon="116.7604615" version="1" timestamp="2026-03-12T13:39:52Z" changeset="179758942" uid="611825" user="Jonas Hermsmeier"/>
  <node id="13641142629" lat="-26.8212975" lon="116.7577321" version="1" timestamp="2026-03-12T13:39:52Z" changeset="179758942" uid="611825" user="Jonas Hermsmeier"/>
  <node id="13641142630" lat="-26.8265978" lon="116.7529599" version="1" timestamp="2026-03-12T13:39:52Z" changeset="179758942" uid="611825" user="Jonas Hermsmeier"/>
  <node id="13641142631" lat="-26.8290073" lon="116.7622067" version="1" timestamp="2026-03-12T13:39:52Z" changeset="179758942" uid="611825" user="Jonas Hermsmeier"/>
  <node id="13641142632" lat="-26.8283478" lon="116.7606044" version="1" timestamp="2026-03-12T13:39:52Z" changeset="179758942" uid="611825" user="Jonas Hermsmeier"/>
  <node id="13641142633" lat="-26.8279968" lon="116.7596818" version="1" timestamp="2026-03-12T13:39:52Z" changeset="179758942" uid="611825" user="Jonas Hermsmeier"/>
  <node id="13641142634" lat="-26.8276148" lon="116.7593143" version="1" timestamp="2026-03-12T13:39:52Z" changeset="179758942" uid="611825" user="Jonas Hermsmeier"/>
  <node id="13641142635" lat="-26.8272710" lon="116.7591431" version="1" timestamp="2026-03-12T13:39:52Z" changeset="179758942" uid="611825" user="Jonas Hermsmeier"/>
  <node id="13641142636" lat="-26.8258544" lon="116.7586508" version="1" timestamp="2026-03-12T13:39:52Z" changeset="179758942" uid="611825" user="Jonas Hermsmeier"/>
  <node id="13641142637" lat="-26.8252464" lon="116.7587329" version="1" timestamp="2026-03-12T13:39:52Z" changeset="179758942" uid="611825" user="Jonas Hermsmeier"/>
  <node id="13641142638" lat="-26.8218592" lon="116.7603203" version="1" timestamp="2026-03-12T13:39:52Z" changeset="179758942" uid="611825" user="Jonas Hermsmeier"/>
  <node id="13641142639" lat="-26.8199141" lon="116.7617900" version="1" timestamp="2026-03-12T13:39:52Z" changeset="179758942" uid="611825" user="Jonas Hermsmeier"/>
  <node id="13641142640" lat="-26.8196094" lon="116.7621398" version="1" timestamp="2026-03-12T13:39:52Z" changeset="179758942" uid="611825" user="Jonas Hermsmeier"/>
  <node id="13641142641" lat="-26.8255440" lon="116.7586562" version="1" timestamp="2026-03-12T13:39:52Z" changeset="179758942" uid="611825" user="Jonas Hermsmeier"/>
  <node id="13641142642" lat="-26.8278249" lon="116.7594606" version="1" timestamp="2026-03-12T13:39:52Z" changeset="179758942" uid="611825" user="Jonas Hermsmeier"/>
  <node id="13641142643" lat="-26.8212288" lon="116.7579630" version="1" timestamp="2026-03-12T13:39:52Z" changeset="179758942" uid="611825" user="Jonas Hermsmeier"/>
  <node id="13641142644" lat="-26.8210658" lon="116.7579030" version="1" timestamp="2026-03-12T13:39:52Z" changeset="179758942" uid="611825" user="Jonas Hermsmeier"/>
  <node id="13641142645" lat="-26.8209140" lon="116.7577551" version="1" timestamp="2026-03-12T13:39:52Z" changeset="179758942" uid="611825" user="Jonas Hermsmeier"/>
  <node id="13641142646" lat="-26.8205212" lon="116.7570730" version="1" timestamp="2026-03-12T13:39:52Z" changeset="179758942" uid="611825" user="Jonas Hermsmeier"/>
  <node id="13641142647" lat="-26.8264406" lon="116.7530875" version="1" timestamp="2026-03-12T13:39:52Z" changeset="179758942" uid="611825" user="Jonas Hermsmeier"/>
  <node id="13641193304" lat="-26.8107039" lon="116.8261747" version="1" timestamp="2026-03-12T14:09:56Z" changeset="179760080" uid="611825" user="Jonas Hermsmeier"/>
  <node id="13641193305" lat="-26.8108913" lon="116.8260529" version="1" timestamp="2026-03-12T14:09:56Z" changeset="179760080" uid="611825" user="Jonas Hermsmeier"/>
  <node id="13641193306" lat="-26.8110016" lon="116.8260034" version="1" timestamp="2026-03-12T14:09:56Z" changeset="179760080" uid="611825" user="Jonas Hermsmeier"/>
  <node id="13641193307" lat="-26.8111580" lon="116.8259742" version="1" timestamp="2026-03-12T14:09:56Z" changeset="179760080" uid="611825" user="Jonas Hermsmeier"/>
  <node id="13641193308" lat="-26.8122150" lon="116.8258596" version="1" timestamp="2026-03-12T14:09:56Z" changeset="179760080" uid="611825" user="Jonas Hermsmeier"/>
  <node id="13641193309" lat="-26.8127926" lon="116.8257495" version="1" timestamp="2026-03-12T14:09:56Z" changeset="179760080" uid="611825" user="Jonas Hermsmeier"/>
  <node id="13641193310" lat="-26.8135127" lon="116.8256978" version="1" timestamp="2026-03-12T14:09:56Z" changeset="179760080" uid="611825" user="Jonas Hermsmeier"/>
  <node id="13641193311" lat="-26.8144834" lon="116.8255585" version="1" timestamp="2026-03-12T14:09:56Z" changeset="179760080" uid="611825" user="Jonas Hermsmeier"/>
  <node id="13641193312" lat="-26.8155022" lon="116.8251382" version="1" timestamp="2026-03-12T14:09:56Z" changeset="179760080" uid="611825" user="Jonas Hermsmeier"/>
  <node id="13641193313" lat="-26.8174898" lon="116.8243607" version="1" timestamp="2026-03-12T14:09:56Z" changeset="179760080" uid="611825" user="Jonas Hermsmeier"/>
  <node id="13641193314" lat="-26.8185086" lon="116.8239652" version="1" timestamp="2026-03-12T14:09:56Z" changeset="179760080" uid="611825" user="Jonas Hermsmeier"/>
  <node id="13641193315" lat="-26.8193369" lon="116.8235786" version="1" timestamp="2026-03-12T14:09:56Z" changeset="179760080" uid="611825" user="Jonas Hermsmeier"/>
  <node id="13641193316" lat="-26.8206926" lon="116.8231269" version="1" timestamp="2026-03-12T14:09:56Z" changeset="179760080" uid="611825" user="Jonas Hermsmeier"/>
  <node id="13641193317" lat="-26.8221907" lon="116.8225022" version="1" timestamp="2026-03-12T14:09:56Z" changeset="179760080" uid="611825" user="Jonas Hermsmeier"/>
  <node id="13641193318" lat="-26.8228324" lon="116.8222820" version="1" timestamp="2026-03-12T14:09:56Z" changeset="179760080" uid="611825" user="Jonas Hermsmeier"/>
  <node id="13641193319" lat="-26.8242703" lon="116.8217134" version="1" timestamp="2026-03-12T14:09:56Z" changeset="179760080" uid="611825" user="Jonas Hermsmeier"/>
  <node id="13641193320" lat="-26.8260391" lon="116.8209718" version="1" timestamp="2026-03-12T14:09:56Z" changeset="179760080" uid="611825" user="Jonas Hermsmeier"/>
  <node id="13641193321" lat="-26.8278801" lon="116.8202774" version="1" timestamp="2026-03-12T14:09:56Z" changeset="179760080" uid="611825" user="Jonas Hermsmeier"/>
  <node id="13641193322" lat="-26.8298573" lon="116.8194999" version="1" timestamp="2026-03-12T14:09:56Z" changeset="179760080" uid="611825" user="Jonas Hermsmeier"/>
  <node id="13641193323" lat="-26.8328432" lon="116.8183201" version="1" timestamp="2026-03-12T14:09:56Z" changeset="179760080" uid="611825" user="Jonas Hermsmeier"/>
  <node id="13641193324" lat="-26.8363745" lon="116.8170796" version="1" timestamp="2026-03-12T14:09:56Z" changeset="179760080" uid="611825" user="Jonas Hermsmeier"/>
  <node id="13641193325" lat="-26.8378283" lon="116.8164301" version="1" timestamp="2026-03-12T14:09:56Z" changeset="179760080" uid="611825" user="Jonas Hermsmeier"/>
  <node id="13641193326" lat="-26.8388930" lon="116.8158324" version="1" timestamp="2026-03-12T14:09:56Z" changeset="179760080" uid="611825" user="Jonas Hermsmeier"/>
  <node id="13641193327" lat="-26.8390073" lon="116.8157178" version="1" timestamp="2026-03-12T14:09:56Z" changeset="179760080" uid="611825" user="Jonas Hermsmeier"/>
  <node id="13641193328" lat="-26.8400540" lon="116.8141087" version="1" timestamp="2026-03-12T14:09:56Z" changeset="179760080" uid="611825" user="Jonas Hermsmeier"/>
  <node id="13641193329" lat="-26.8401194" lon="116.8139149" version="1" timestamp="2026-03-12T14:09:56Z" changeset="179760080" uid="611825" user="Jonas Hermsmeier"/>
  <node id="13641193330" lat="-26.8401563" lon="116.8137222" version="1" timestamp="2026-03-12T14:09:56Z" changeset="179760080" uid="611825" user="Jonas Hermsmeier"/>
  <node id="13641193331" lat="-26.8404771" lon="116.8102345" version="1" timestamp="2026-03-12T14:09:56Z" changeset="179760080" uid="611825" user="Jonas Hermsmeier"/>
  <node id="13641193332" lat="-26.8406535" lon="116.8093423" version="1" timestamp="2026-03-12T14:09:56Z" changeset="179760080" uid="611825" user="Jonas Hermsmeier"/>
  <node id="13641193333" lat="-26.8418085" lon="116.8031916" version="1" timestamp="2026-03-12T14:09:56Z" changeset="179760080" uid="611825" user="Jonas Hermsmeier"/>
  <node id="13641193334" lat="-26.8421915" lon="116.8011241" version="1" timestamp="2026-03-12T14:09:56Z" changeset="179760080" uid="611825" user="Jonas Hermsmeier"/>
  <node id="13641193335" lat="-26.8425453" lon="116.7991248" version="1" timestamp="2026-03-12T14:09:56Z" changeset="179760080" uid="611825" user="Jonas Hermsmeier"/>
  <node id="13641193336" lat="-26.8431115" lon="116.7958037" version="1" timestamp="2026-03-12T14:09:56Z" changeset="179760080" uid="611825" user="Jonas Hermsmeier"/>
  <node id="13641193337" lat="-26.8434131" lon="116.7939000" version="1" timestamp="2026-03-12T14:09:56Z" changeset="179760080" uid="611825" user="Jonas Hermsmeier"/>
  <node id="13641193338" lat="-26.8434184" lon="116.7936747" version="1" timestamp="2026-03-12T14:09:56Z" changeset="179760080" uid="611825" user="Jonas Hermsmeier"/>
  <node id="13641193339" lat="-26.8435719" lon="116.7929482" version="1" timestamp="2026-03-12T14:09:56Z" changeset="179760080" uid="611825" user="Jonas Hermsmeier"/>
  <node id="13641193340" lat="-26.8435904" lon="116.7926072" version="1" timestamp="2026-03-12T14:09:56Z" changeset="179760080" uid="611825" user="Jonas Hermsmeier"/>
  <node id="13641193341" lat="-26.8437730" lon="116.7916553" version="1" timestamp="2026-03-12T14:09:56Z" changeset="179760080" uid="611825" user="Jonas Hermsmeier"/>
  <node id="13641193342" lat="-26.8438365" lon="116.7912431" version="1" timestamp="2026-03-12T14:09:56Z" changeset="179760080" uid="611825" user="Jonas Hermsmeier"/>
  <node id="13641193343" lat="-26.8440375" lon="116.7889807" version="1" timestamp="2026-03-12T14:09:56Z" changeset="179760080" uid="611825" user="Jonas Hermsmeier"/>
  <node id="13641193344" lat="-26.8440296" lon="116.7887672" version="1" timestamp="2026-03-12T14:09:56Z" changeset="179760080" uid="611825" user="Jonas Hermsmeier"/>
  <node id="13641193345" lat="-26.8441143" lon="116.7884499" version="1" timestamp="2026-03-12T14:09:56Z" changeset="179760080" uid="611825" user="Jonas Hermsmeier"/>
  <node id="13641193346" lat="-26.8441090" lon="116.7880585" version="1" timestamp="2026-03-12T14:09:56Z" changeset="179760080" uid="611825" user="Jonas Hermsmeier"/>
  <node id="13641193347" lat="-26.8442201" lon="116.7871274" version="1" timestamp="2026-03-12T14:09:56Z" changeset="179760080" uid="611825" user="Jonas Hermsmeier"/>
  <node id="13641193348" lat="-26.8449106" lon="116.7794681" version="1" timestamp="2026-03-12T14:09:56Z" changeset="179760080" uid="611825" user="Jonas Hermsmeier"/>
  <node id="13641193350" lat="-26.8371278" lon="116.8168290" version="1" timestamp="2026-03-12T14:09:56Z" changeset="179760080" uid="611825" user="Jonas Hermsmeier"/>
  <node id="13668079003" lat="-26.8453845" lon="116.7743830" version="1" timestamp="2026-03-22T00:19:27Z" changeset="180230769" uid="611825" user="Jonas Hermsmeier"/>
  <node id="13668079004" lat="-26.8394603" lon="116.7608950" version="1" timestamp="2026-03-22T00:19:27Z" changeset="180230769" uid="611825" user="Jonas Hermsmeier"/>
  <node id="13668079005" lat="-26.8358394" lon="116.7549681" version="1" timestamp="2026-03-22T00:19:27Z" changeset="180230769" uid="611825" user="Jonas Hermsmeier"/>
  <node id="13668079006" lat="-26.8353326" lon="116.7537910" version="1" timestamp="2026-03-22T00:19:27Z" changeset="180230769" uid="611825" user="Jonas Hermsmeier"/>
  <node id="13668079007" lat="-26.8348720" lon="116.7526139" version="1" timestamp="2026-03-22T00:19:27Z" changeset="180230769" uid="611825" user="Jonas Hermsmeier"/>
  <node id="13668079008" lat="-26.8346785" lon="116.7522421" version="1" timestamp="2026-03-22T00:19:27Z" changeset="180230769" uid="611825" user="Jonas Hermsmeier"/>
  <node id="13668079009" lat="-26.8343636" lon="116.7520892" version="1" timestamp="2026-03-22T00:19:27Z" changeset="180230769" uid="611825" user="Jonas Hermsmeier"/>
  <node id="13668079010" lat="-26.8342033" lon="116.7521072" version="1" timestamp="2026-03-22T00:19:27Z" changeset="180230769" uid="611825" user="Jonas Hermsmeier"/>
  <way id="1488018473" version="2" timestamp="2026-03-18T15:59:43Z" changeset="180067171" uid="611825" user="Jonas Hermsmeier">
    <nd ref="13641142374"/>
    <nd ref="13641142582"/>
    <nd ref="13641142524"/>
    <nd ref="13641142375"/>
    <nd ref="13641142376"/>
    <nd ref="13641142377"/>
    <nd ref="13641142378"/>
    <nd ref="13641142379"/>
    <nd ref="13641142380"/>
    <nd ref="13641142381"/>
    <nd ref="13641142382"/>
    <nd ref="13641142383"/>
    <nd ref="13641142384"/>
    <nd ref="13641142385"/>
    <nd ref="13641142386"/>
    <nd ref="13641142387"/>
    <nd ref="13641142388"/>
    <nd ref="13641142389"/>
    <nd ref="13641142390"/>
    <nd ref="13641142391"/>
    <nd ref="13641142392"/>
    <nd ref="13641142393"/>
    <nd ref="13641142394"/>
    <nd ref="13641142395"/>
    <nd ref="13641142396"/>
    <nd ref="13641142397"/>
    <nd ref="13641142398"/>
    <nd ref="13641142399"/>
    <nd ref="13641142400"/>
    <nd ref="13641142401"/>
    <nd ref="13641142402"/>
    <nd ref="13641142403"/>
    <nd ref="13641142404"/>
    <nd ref="13641142405"/>
    <nd ref="13641142406"/>
    <nd ref="13641142407"/>
    <nd ref="13641142408"/>
    <nd ref="13641142409"/>
    <nd ref="13641142410"/>
    <nd ref="13641142571"/>
    <nd ref="13641142411"/>
    <nd ref="13641142412"/>
    <nd ref="13641142413"/>
    <nd ref="13641142414"/>
    <nd ref="13641142415"/>
    <nd ref="13641142416"/>
    <nd ref="13641142417"/>
    <nd ref="13641142568"/>
    <nd ref="13641142418"/>
    <nd ref="13641142419"/>
    <nd ref="13641142566"/>
    <nd ref="13641142420"/>
    <nd ref="13641142421"/>
    <nd ref="13641142422"/>
    <nd ref="13641142423"/>
    <nd ref="13641142424"/>
    <nd ref="13641142425"/>
    <nd ref="13641142426"/>
    <nd ref="13641142427"/>
    <nd ref="13641142428"/>
    <nd ref="13641142429"/>
    <nd ref="13641142430"/>
    <nd ref="13641142431"/>
    <nd ref="13641142432"/>
    <nd ref="13641142433"/>
    <nd ref="13641142434"/>
    <nd ref="13641142435"/>
    <tag k="highway" v="service"/>
    <tag k="surface" v="unpaved"/>
  </way>
  <way id="1488018476" version="2" timestamp="2026-03-18T15:59:43Z" changeset="180067171" uid="611825" user="Jonas Hermsmeier">
    <nd ref="13641142439"/>
    <nd ref="13641142440"/>
    <nd ref="13641142442"/>
    <nd ref="13641142631"/>
    <nd ref="13641142441"/>
    <tag k="highway" v="service"/>
    <tag k="surface" v="unpaved"/>
  </way>
  <way id="1488018477" version="2" timestamp="2026-03-18T15:59:43Z" changeset="180067171" uid="611825" user="Jonas Hermsmeier">
    <nd ref="13641142442"/>
    <nd ref="13641142435"/>
    <nd ref="13641142443"/>
    <nd ref="13641142495"/>
    <nd ref="13641142444"/>
    <nd ref="13641142445"/>
    <nd ref="13641142493"/>
    <nd ref="13641142446"/>
    <nd ref="13641142447"/>
    <nd ref="13641142448"/>
    <nd ref="13641142449"/>
    <nd ref="13641142450"/>
    <nd ref="13641142451"/>
    <nd ref="13641142452"/>
    <nd ref="13641142453"/>
    <nd ref="13641142454"/>
    <nd ref="13641142455"/>
    <nd ref="13641142456"/>
    <nd ref="13641142457"/>
    <nd ref="13641142458"/>
    <nd ref="13641142459"/>
    <nd ref="13641142460"/>
    <nd ref="13641142461"/>
    <nd ref="13641142462"/>
    <nd ref="13641142463"/>
    <nd ref="13641142464"/>
    <nd ref="13641142465"/>
    <nd ref="13641142466"/>
    <nd ref="13641142467"/>
    <nd ref="13641142468"/>
    <nd ref="13641142469"/>
    <nd ref="13641142470"/>
    <nd ref="13641142471"/>
    <nd ref="13641142472"/>
    <nd ref="13641142473"/>
    <nd ref="13641142474"/>
    <nd ref="13641142475"/>
    <nd ref="13641142476"/>
    <nd ref="13641142477"/>
    <nd ref="13641142478"/>
    <nd ref="13641142489"/>
    <nd ref="13641142479"/>
    <nd ref="13641142480"/>
    <nd ref="13641142481"/>
    <nd ref="13641142482"/>
    <nd ref="13641142483"/>
    <nd ref="13641142484"/>
    <nd ref="13641142485"/>
    <nd ref="13641142486"/>
    <nd ref="13641142487"/>
    <nd ref="13641142488"/>
    <tag k="highway" v="service"/>
    <tag k="surface" v="unpaved"/>
  </way>
  <way id="1488018479" version="2" timestamp="2026-03-18T15:59:43Z" changeset="180067171" uid="611825" user="Jonas Hermsmeier">
    <nd ref="13641142493"/>
    <nd ref="13641142494"/>
    <tag k="highway" v="service"/>
    <tag k="surface" v="unpaved"/>
  </way>
  <way id="1488018480" version="2" timestamp="2026-03-18T15:59:43Z" changeset="180067171" uid="611825" user="Jonas Hermsmeier">
    <nd ref="13641142495"/>
    <nd ref="13641142496"/>
    <nd ref="13641142497"/>
    <tag k="highway" v="service"/>
    <tag k="surface" v="unpaved"/>
  </way>
  <way id="1488018481" version="2" timestamp="2026-03-18T15:59:43Z" changeset="180067171" uid="611825" user="Jonas Hermsmeier">
    <nd ref="13641142442"/>
    <nd ref="13641142498"/>
    <nd ref="13641142499"/>
    <tag k="highway" v="service"/>
    <tag k="surface" v="unpaved"/>
  </way>
  <way id="1488018483" version="2" timestamp="2026-03-18T15:59:43Z" changeset="180067171" uid="611825" user="Jonas Hermsmeier">
    <nd ref="13641142524"/>
    <nd ref="13641142581"/>
    <nd ref="13641142575"/>
    <nd ref="13641142525"/>
    <nd ref="13641142526"/>
    <nd ref="13641142527"/>
    <nd ref="13641142528"/>
    <nd ref="13641142529"/>
    <nd ref="13641142530"/>
    <nd ref="13641142531"/>
    <nd ref="13641142532"/>
    <nd ref="13641142533"/>
    <nd ref="13641142534"/>
    <nd ref="13641142535"/>
    <nd ref="13641142536"/>
    <nd ref="13641142537"/>
    <nd ref="13641142538"/>
    <nd ref="13641142539"/>
    <nd ref="13641142540"/>
    <nd ref="13641142541"/>
    <nd ref="13641142542"/>
    <nd ref="13641142543"/>
    <nd ref="13641142544"/>
    <nd ref="13641142545"/>
    <nd ref="13641142546"/>
    <nd ref="13641142547"/>
    <nd ref="13641142523"/>
    <nd ref="13641142548"/>
    <nd ref="13641142549"/>
    <nd ref="13641142550"/>
    <nd ref="13641142551"/>
    <nd ref="13641142552"/>
    <nd ref="13641142553"/>
    <nd ref="13641142632"/>
    <nd ref="13641142554"/>
    <nd ref="13641142555"/>
    <nd ref="13641142556"/>
    <nd ref="13641142557"/>
    <nd ref="13641142558"/>
    <nd ref="13641142559"/>
    <nd ref="13641142560"/>
    <nd ref="13641142561"/>
    <nd ref="13641142563"/>
    <nd ref="13641142562"/>
    <nd ref="13641142431"/>
    <tag k="highway" v="service"/>
    <tag k="surface" v="unpaved"/>
  </way>
  <way id="1488018486" version="2" timestamp="2026-03-18T15:59:43Z" changeset="180067171" uid="611825" user="Jonas Hermsmeier">
    <nd ref="13641142566"/>
    <nd ref="13641142567"/>
    <tag k="highway" v="service"/>
    <tag k="surface" v="unpaved"/>
  </way>
  <way id="1488018487" version="2" timestamp="2026-03-18T15:59:43Z" changeset="180067171" uid="611825" user="Jonas Hermsmeier">
    <nd ref="13641142568"/>
    <nd ref="13641142569"/>
    <nd ref="13641142570"/>
    <tag k="highway" v="service"/>
    <tag k="surface" v="unpaved"/>
  </way>
  <way id="1488018496" version="2" timestamp="2026-03-18T15:59:43Z" changeset="180067171" uid="611825" user="Jonas Hermsmeier">
    <nd ref="13641142624"/>
    <nd ref="13641142625"/>
    <nd ref="13641142626"/>
    <nd ref="13641142627"/>
    <nd ref="13641142628"/>
    <nd ref="13641142643"/>
    <nd ref="13641142629"/>
    <nd ref="13641142647"/>
    <nd ref="13641142630"/>
    <tag k="highway" v="service"/>
    <tag k="surface" v="unpaved"/>
  </way>
  <way id="1488018497" version="2" timestamp="2026-03-18T15:59:43Z" changeset="180067171" uid="611825" user="Jonas Hermsmeier">
    <nd ref="13641142631"/>
    <nd ref="13641142632"/>
    <nd ref="13641142633"/>
    <nd ref="13641142642"/>
    <nd ref="13641142634"/>
    <nd ref="13641142635"/>
    <nd ref="13641142636"/>
    <nd ref="13641142641"/>
    <nd ref="13641142637"/>
    <nd ref="13641142638"/>
    <nd ref="13641142625"/>
    <nd ref="13641142639"/>
    <nd ref="13641142640"/>
    <tag k="highway" v="service"/>
    <tag k="surface" v="unpaved"/>
  </way>
  <way id="1488018498" version="2" timestamp="2026-03-18T15:59:43Z" changeset="180067171" uid="611825" user="Jonas Hermsmeier">
    <nd ref="13641142643"/>
    <nd ref="13641142644"/>
    <nd ref="13641142645"/>
    <nd ref="13641142646"/>
    <tag k="highway" v="service"/>
    <tag k="surface" v="unpaved"/>
  </way>
  <way id="1488018499" version="2" timestamp="2026-03-18T15:59:43Z" changeset="180067171" uid="611825" user="Jonas Hermsmeier">
    <nd ref="13641142647"/>
    <nd ref="13641142323"/>
    <tag k="highway" v="service"/>
    <tag k="surface" v="unpaved"/>
  </way>
  <way id="1488025272" version="3" timestamp="2026-03-22T00:19:27Z" changeset="180230769" uid="611825" user="Jonas Hermsmeier">
    <nd ref="13641193304"/>
    <nd ref="13641193305"/>
    <nd ref="13641193306"/>
    <nd ref="13641193307"/>
    <nd ref="13641193308"/>
    <nd ref="13641193309"/>
    <nd ref="13641193310"/>
    <nd ref="13641193311"/>
    <nd ref="13641193312"/>
    <nd ref="13641193313"/>
    <nd ref="13641193314"/>
    <nd ref="13641193315"/>
    <nd ref="13641193316"/>
    <nd ref="13641193317"/>
    <nd ref="13641193318"/>
    <nd ref="13641193319"/>
    <nd ref="13641193320"/>
    <nd ref="13641193321"/>
    <nd ref="13641193322"/>
    <nd ref="13641193323"/>
    <nd ref="13641193324"/>
    <nd ref="13641193350"/>
    <nd ref="13641193325"/>
    <nd ref="13641193326"/>
    <nd ref="13641193327"/>
    <nd ref="13641193328"/>
    <nd ref="13641193329"/>
    <nd ref="13641193330"/>
    <nd ref="13641193331"/>
    <nd ref="13641193332"/>
    <nd ref="13641193333"/>
    <nd ref="13641193334"/>
    <nd ref="13641193335"/>
    <nd ref="13641193336"/>
    <nd ref="13641193337"/>
    <nd ref="13641193338"/>
    <nd ref="13641193339"/>
    <nd ref="13641193340"/>
    <nd ref="13641193341"/>
    <nd ref="13641193342"/>
    <nd ref="13641193343"/>
    <nd ref="13641193344"/>
    <nd ref="13641193345"/>
    <nd ref="13641193346"/>
    <nd ref="13641193347"/>
    <nd ref="13641193348"/>
    <nd ref="13668079003"/>
    <nd ref="13668079004"/>
    <nd ref="13641142547"/>
    <nd ref="13641142520"/>
    <nd ref="13668079005"/>
    <nd ref="13668079006"/>
    <nd ref="13668079007"/>
    <nd ref="13668079008"/>
    <nd ref="13668079009"/>
    <nd ref="13668079010"/>
    <nd ref="13641142630"/>
    <tag k="highway" v="service"/>
    <tag k="surface" v="unpaved"/>
  </way>

</osm>
